{
    "links": {
        "self": "http://www.neowsapp.com/rest/v1/neo/3676114?api_key=iIulBulltgU6a56xZRHN4H3l9WmuAYTsLGpBGhQ2"
    },
    "id": "3676114",
    "neo_reference_id": "3676114",
    "name": "(2014 OH112)",
    "designation": "2014 OH112",
    "nasa_jpl_url": "http://ssd.jpl.nasa.gov/sbdb.cgi?sstr=3676114",
    "absolute_magnitude_h": 26.5,
    "estimated_diameter": {
        "kilometers": {
            "estimated_diameter_min": 0.0133215567,
            "estimated_diameter_max": 0.0297879063
        },
        "meters": {
            "estimated_diameter_min": 13.3215566698,
            "estimated_diameter_max": 29.7879062798
        },
        "miles": {
            "estimated_diameter_min": 0.008277629,
            "estimated_diameter_max": 0.0185093411
        },
        "feet": {
            "estimated_diameter_min": 43.7058959846,
            "estimated_diameter_max": 97.7293544391
        }
    },
    "is_potentially_hazardous_asteroid": false,
    "close_approach_data": [
        {
            "close_approach_date": "1957-05-19",
            "close_approach_date_full": "1957-May-19 03:05",
            "epoch_date_close_approach": -398292900000,
            "relative_velocity": {
                "kilometers_per_second": "10.3231262587",
                "kilometers_per_hour": "37163.2545314021",
                "miles_per_hour": "23091.801128137"
            },
            "miss_distance": {
                "astronomical": "0.2400827851",
                "lunar": "93.3922034039",
                "kilometers": "35915873.274627737",
                "miles": "22317088.7956952906"
            },
            "orbiting_body": "Earth"
        },
        {
            "close_approach_date": "2004-05-11",
            "close_approach_date_full": "2004-May-11 19:45",
            "epoch_date_close_approach": 1084304700000,
            "relative_velocity": {
                "kilometers_per_second": "13.3416755396",
                "kilometers_per_hour": "48030.0319426147",
                "miles_per_hour": "29843.9940145652"
            },
            "miss_distance": {
                "astronomical": "0.335389226",
                "lunar": "130.466408914",
                "kilometers": "50173513.83054862",
                "miles": "31176375.826546156"
            },
            "orbiting_body": "Earth"
        },
        {
            "close_approach_date": "2014-07-20",
            "close_approach_date_full": "2014-Jul-20 06:28",
            "epoch_date_close_approach": 1405837680000,
            "relative_velocity": {
                "kilometers_per_second": "5.5428186781",
                "kilometers_per_hour": "19954.1472409835",
                "miles_per_hour": "12398.7311009322"
            },
            "miss_distance": {
                "astronomical": "0.0320473229",
                "lunar": "12.4664086081",
                "kilometers": "4794211.245042223",
                "miles": "2978984.7303117574"
            },
            "orbiting_body": "Earth"
        },
        {
            "close_approach_date": "2019-08-12",
            "close_approach_date_full": "2019-Aug-12 11:04",
            "epoch_date_close_approach": 1565607840000,
            "relative_velocity": {
                "kilometers_per_second": "11.3620087057",
                "kilometers_per_hour": "40903.2313404217",
                "miles_per_hour": "25415.6772737193"
            },
            "miss_distance": {
                "astronomical": "0.232592351",
                "lunar": "90.478424539",
                "kilometers": "34795320.28789237",
                "miles": "21620809.456639906"
            },
            "orbiting_body": "Earth"
        },
        {
            "close_approach_date": "2024-08-25",
            "close_approach_date_full": "2024-Aug-25 05:38",
            "epoch_date_close_approach": 1724564280000,
            "relative_velocity": {
                "kilometers_per_second": "18.170249934",
                "kilometers_per_hour": "65412.8997622913",
                "miles_per_hour": "40645.032077297"
            },
            "miss_distance": {
                "astronomical": "0.4739109878",
                "lunar": "184.3513742542",
                "kilometers": "70896074.344475986",
                "miles": "44052777.8432051668"
            },
            "orbiting_body": "Earth"
        }
    ],
    "orbital_data": {
        "orbit_id": "6",
        "orbit_determination_date": "2017-04-06 08:39:30",
        "first_observation_date": "2014-07-27",
        "last_observation_date": "2014-08-06",
        "data_arc_in_days": 10,
        "observations_used": 16,
        "orbit_uncertainty": "7",
        "minimum_orbit_intersection": ".0320128",
        "jupiter_tisserand_invariant": "4.679",
        "epoch_osculation": "2459000.5",
        "eccentricity": ".2712161835020027",
        "semi_major_axis": "1.413057228583019",
        "inclination": "6.480878654644656",
        "ascending_node_longitude": "304.8701868852941",
        "orbital_period": "613.5331786239253",
        "perihelion_distance": "1.029813239976816",
        "perihelion_argument": "331.7429596175938",
        "aphelion_distance": "1.796301217189223",
        "perihelion_time": "2459292.750528586121",
        "mean_anomaly": "188.5175212089159",
        "mean_motion": ".5867653332252265",
        "equinox": "J2000",
        "orbit_class": {
            "orbit_class_type": "AMO",
            "orbit_class_description": "Near-Earth asteroid orbits similar to that of 1221 Amor",
            "orbit_class_range": "1.017 AU < q (perihelion) < 1.3 AU"
        }
    },
    "is_sentry_object": false
}